[{"OBJECT_NAME":"STARLINK-5308","OBJECT_ID":"2023-010AH","EPOCH":"2026-03-09T21:24:56.578464","MEAN_MOTION":14.98333974,"ECCENTRICITY":0.00029081,"INCLINATION":70.0013,"RA_OF_ASC_NODE":23.7797,"ARG_OF_PERICENTER":271.4403,"MEAN_ANOMALY":88.6422,"EPHEMERIS_TYPE":0,"CLASSIFICATION_TYPE":"U","NORAD_CAT_ID":55300,"ELEMENT_SET_NO":999,"REV_AT_EPOCH":17330,"BSTAR":-1.8488378e-5,"MEAN_MOTION_DOT":-3.14e-6,"MEAN_MOTION_DDOT":0},{"OBJECT_NAME":"PE2_FLT2  (TYVAK-0262)","OBJECT_ID":"2024-043G","EPOCH":"2026-03-09T22:11:35.814912","MEAN_MOTION":14.96566721,"ECCENTRICITY":0.00068512,"INCLINATION":97.8241,"RA_OF_ASC_NODE":199.4452,"ARG_OF_PERICENTER":28.1235,"MEAN_ANOMALY":332.0355,"EPHEMERIS_TYPE":0,"CLASSIFICATION_TYPE":"U","NORAD_CAT_ID":59104,"ELEMENT_SET_NO":999,"REV_AT_EPOCH":10980,"BSTAR":0.00036572059,"MEAN_MOTION_DOT":4.105e-5,"MEAN_MOTION_DDOT":0}]
